start=new Date('2022-08-22T00:00:00.000Z').valueOf();
sats=[{"RA_OF_ASC_NODE":"128.7412","SITE":"AFETR","MEAN_MOTION_DDOT":"0.0000000000000","COUNTRY_CODE":"US","MEAN_MOTION":"15.06410094","TLE_LINE2":"2 48685  53.0546 128.7412 0001589  81.3491 278.7678 15.06410094 69101","NORAD_CAT_ID":"48685","BSTAR":"0.00098622000000","OBJECT_TYPE":"PAYLOAD","EPOCH":"2022-08-21T21:24:52.181568","TIME_SYSTEM":"UTC","PERIAPSIS":"546.082","ARG_OF_PERICENTER":"81.3491","REF_FRAME":"TEME","EPHEMERIS_TYPE":"0","INCLINATION":"53.0546","ELEMENT_SET_NO":"999","REV_AT_EPOCH":"6910","MEAN_ELEMENT_THEORY":"SGP4","CENTER_NAME":"EARTH","LAUNCH_DATE":"2021-05-26","MEAN_MOTION_DOT":"0.00014443","SEMIMAJOR_AXIS":"6925.318","GP_ID":"210690412","ECCENTRICITY":"0.00015890","PERIOD":"95.591","OBJECT_NAME":"STARLINK-2751","CLASSIFICATION_TYPE":"U","OBJECT_ID":"2021-044AZ","FILE":"3542671","DECAY_DATE":null,"RCS_SIZE":"LARGE","MEAN_ANOMALY":"278.7678","TLE_LINE1":"1 48685U 21044AZ  22233.89227062  .00014443  00000-0  98622-3 0  9996","APOAPSIS":"548.283"},{"ECCENTRICITY":"0.00016630","GP_ID":"210691660","SEMIMAJOR_AXIS":"6925.333","MEAN_MOTION_DOT":"0.00010218","LAUNCH_DATE":"2021-05-26","REV_AT_EPOCH":"6902","MEAN_ELEMENT_THEORY":"SGP4","CENTER_NAME":"EARTH","ELEMENT_SET_NO":"999","INCLINATION":"53.0536","APOAPSIS":"548.349","TLE_LINE1":"1 48686U 21044BA  22233.88632167  .00010218  00000-0  70374-3 0  9992","MEAN_ANOMALY":"299.0792","RCS_SIZE":"LARGE","DECAY_DATE":null,"OBJECT_ID":"2021-044BA","FILE":"3542671","OBJECT_NAME":"STARLINK-2629","CLASSIFICATION_TYPE":"U","PERIOD":"95.592","EPOCH":"2022-08-21T21:16:18.192288","BSTAR":"0.00070374000000","OBJECT_TYPE":"PAYLOAD","NORAD_CAT_ID":"48686","TLE_LINE2":"2 48686  53.0536 133.9925 0001663  61.0364 299.0792 15.06405233 69028","MEAN_MOTION":"15.06405233","COUNTRY_CODE":"US","SITE":"AFETR","MEAN_MOTION_DDOT":"0.0000000000000","RA_OF_ASC_NODE":"133.9925","EPHEMERIS_TYPE":"0","REF_FRAME":"TEME","ARG_OF_PERICENTER":"61.0364","PERIAPSIS":"546.046","TIME_SYSTEM":"UTC"},{"TIME_SYSTEM":"UTC","PERIAPSIS":"546.279","ARG_OF_PERICENTER":"83.0351","REF_FRAME":"TEME","EPHEMERIS_TYPE":"0","RA_OF_ASC_NODE":"123.8261","MEAN_MOTION_DDOT":"0.0000000000000","SITE":"AFETR","COUNTRY_CODE":"US","MEAN_MOTION":"15.06387747","TLE_LINE2":"2 48687  53.0538 123.8261 0001404  83.0351 277.0798 15.06387747 69161","NORAD_CAT_ID":"48687","OBJECT_TYPE":"PAYLOAD","BSTAR":"0.00003318400000","EPOCH":"2022-08-21T20:40:24.739680","PERIOD":"95.593","CLASSIFICATION_TYPE":"U","OBJECT_NAME":"STARLINK-2627","FILE":"3542671","OBJECT_ID":"2021-044BB","DECAY_DATE":null,"RCS_SIZE":"LARGE","MEAN_ANOMALY":"277.0798","TLE_LINE1":"1 48687U 21044BB  22233.86139745  .00000213  00000-0  33184-4 0  9998","APOAPSIS":"548.223","INCLINATION":"53.0538","ELEMENT_SET_NO":"999","REV_AT_EPOCH":"6916","CENTER_NAME":"EARTH","MEAN_ELEMENT_THEORY":"SGP4","LAUNCH_DATE":"2021-05-26","MEAN_MOTION_DOT":"0.00000213","GP_ID":"210691913","SEMIMAJOR_AXIS":"6925.386","ECCENTRICITY":"0.00014040"},{"NORAD_CAT_ID":"48688","TLE_LINE2":"2 48688  53.0550 123.8072 0001431  82.7499 277.3652 15.06374231 69161","EPOCH":"2022-08-21T20:45:43.634304","OBJECT_TYPE":"PAYLOAD","BSTAR":"0.00008796500000","SITE":"AFETR","MEAN_MOTION_DDOT":"0.0000000000000","RA_OF_ASC_NODE":"123.8072","MEAN_MOTION":"15.06374231","COUNTRY_CODE":"US","REF_FRAME":"TEME","EPHEMERIS_TYPE":"0","TIME_SYSTEM":"UTC","ARG_OF_PERICENTER":"82.7499","PERIAPSIS":"546.302","MEAN_MOTION_DOT":"0.00001028","LAUNCH_DATE":"2021-05-26","ECCENTRICITY":"0.00014310","GP_ID":"210690662","SEMIMAJOR_AXIS":"6925.428","INCLINATION":"53.0550","REV_AT_EPOCH":"6916","CENTER_NAME":"EARTH","MEAN_ELEMENT_THEORY":"SGP4","ELEMENT_SET_NO":"999","RCS_SIZE":"LARGE","DECAY_DATE":null,"TLE_LINE1":"1 48688U 21044BC  22233.86508836  .00001028  00000-0  87965-4 0  9991","MEAN_ANOMALY":"277.3652","APOAPSIS":"548.284","PERIOD":"95.594","FILE":"3542671","OBJECT_ID":"2021-044BC","CLASSIFICATION_TYPE":"U","OBJECT_NAME":"STARLINK-2742"},{"INCLINATION":"53.0549","ELEMENT_SET_NO":"999","REV_AT_EPOCH":"6909","MEAN_ELEMENT_THEORY":"SGP4","CENTER_NAME":"EARTH","LAUNCH_DATE":"2021-05-26","MEAN_MOTION_DOT":"0.00002391","GP_ID":"210690912","SEMIMAJOR_AXIS":"6925.388","ECCENTRICITY":"0.00016160","PERIOD":"95.593","OBJECT_NAME":"STARLINK-2617","CLASSIFICATION_TYPE":"U","OBJECT_ID":"2021-044BD","FILE":"3542671","DECAY_DATE":null,"RCS_SIZE":"LARGE","TLE_LINE1":"1 48689U 21044BD  22233.87014042  .00002391  00000-0  17942-3 0  9995","MEAN_ANOMALY":"288.1277","APOAPSIS":"548.372","RA_OF_ASC_NODE":"128.7595","MEAN_MOTION_DDOT":"0.0000000000000","SITE":"AFETR","COUNTRY_CODE":"US","MEAN_MOTION":"15.06387018","TLE_LINE2":"2 48689  53.0549 128.7595 0001616  71.9888 288.1277 15.06387018 69093","NORAD_CAT_ID":"48689","BSTAR":"0.00017942000000","OBJECT_TYPE":"PAYLOAD","EPOCH":"2022-08-21T20:53:00.132288","TIME_SYSTEM":"UTC","PERIAPSIS":"546.134","ARG_OF_PERICENTER":"71.9888","REF_FRAME":"TEME","EPHEMERIS_TYPE":"0"},{"COUNTRY_CODE":"US","MEAN_MOTION":"15.06391138","RA_OF_ASC_NODE":"138.7587","MEAN_MOTION_DDOT":"0.0000000000000","SITE":"AFETR","BSTAR":"0.00016059000000","OBJECT_TYPE":"PAYLOAD","EPOCH":"2022-08-21T21:02:17.566080","TLE_LINE2":"2 48690  53.0546 138.7587 0001437  83.1201 276.9951 15.06391138 68955","NORAD_CAT_ID":"48690","PERIAPSIS":"546.246","ARG_OF_PERICENTER":"83.1201","TIME_SYSTEM":"UTC","EPHEMERIS_TYPE":"0","REF_FRAME":"TEME","ELEMENT_SET_NO":"999","REV_AT_EPOCH":"6895","CENTER_NAME":"EARTH","MEAN_ELEMENT_THEORY":"SGP4","INCLINATION":"53.0546","GP_ID":"210691161","SEMIMAJOR_AXIS":"6925.376","ECCENTRICITY":"0.00014370","LAUNCH_DATE":"2021-05-26","MEAN_MOTION_DOT":"0.00002111","OBJECT_NAME":"STARLINK-2740","CLASSIFICATION_TYPE":"U","OBJECT_ID":"2021-044BE","FILE":"3542671","PERIOD":"95.593","TLE_LINE1":"1 48690U 21044BE  22233.87659220  .00002111  00000-0  16059-3 0  9998","MEAN_ANOMALY":"276.9951","APOAPSIS":"548.236","DECAY_DATE":null,"RCS_SIZE":"LARGE"},{"GP_ID":"210691414","SEMIMAJOR_AXIS":"6925.351","ECCENTRICITY":"0.00015050","LAUNCH_DATE":"2021-05-26","MEAN_MOTION_DOT":"0.00000028","ELEMENT_SET_NO":"999","REV_AT_EPOCH":"6902","CENTER_NAME":"EARTH","MEAN_ELEMENT_THEORY":"SGP4","INCLINATION":"53.0543","TLE_LINE1":"1 48691U 21044BF  22233.84940805  .00000028  00000-0  20809-4 0  9992","APOAPSIS":"548.259","MEAN_ANOMALY":"283.8064","DECAY_DATE":null,"RCS_SIZE":"LARGE","OBJECT_NAME":"STARLINK-2750","CLASSIFICATION_TYPE":"U","OBJECT_ID":"2021-044BF","FILE":"3542671","PERIOD":"95.592","BSTAR":"0.00002080900000","OBJECT_TYPE":"PAYLOAD","EPOCH":"2022-08-21T20:23:08.855520","TLE_LINE2":"2 48691  53.0543 133.8819 0001505  76.3092 283.8064 15.06399063 69021","NORAD_CAT_ID":"48691","COUNTRY_CODE":"US","MEAN_MOTION":"15.06399063","RA_OF_ASC_NODE":"133.8819","MEAN_MOTION_DDOT":"0.0000000000000","SITE":"AFETR","EPHEMERIS_TYPE":"0","REF_FRAME":"TEME","PERIAPSIS":"546.174","ARG_OF_PERICENTER":"76.3092","TIME_SYSTEM":"UTC"},{"ARG_OF_PERICENTER":"86.6617","PERIAPSIS":"546.298","TIME_SYSTEM":"UTC","EPHEMERIS_TYPE":"0","REF_FRAME":"TEME","MEAN_MOTION":"15.06377516","COUNTRY_CODE":"US","SITE":"AFETR","MEAN_MOTION_DDOT":"0.0000000000000","RA_OF_ASC_NODE":"133.7677","EPOCH":"2022-08-21T21:37:30.041760","OBJECT_TYPE":"PAYLOAD","BSTAR":"0.00009153600000","NORAD_CAT_ID":"48692","TLE_LINE2":"2 48692  53.0546 133.7677 0001422  86.6617 273.4534 15.06377516 69038","FILE":"3542671","OBJECT_ID":"2021-044BG","CLASSIFICATION_TYPE":"U","OBJECT_NAME":"STARLINK-2752","PERIOD":"95.594","APOAPSIS":"548.267","TLE_LINE1":"1 48692U 21044BG  22233.90104215  .00001081  00000-0  91536-4 0  9992","MEAN_ANOMALY":"273.4534","RCS_SIZE":"LARGE","DECAY_DATE":null,"REV_AT_EPOCH":"6903","CENTER_NAME":"EARTH","MEAN_ELEMENT_THEORY":"SGP4","ELEMENT_SET_NO":"999","INCLINATION":"53.0546","ECCENTRICITY":"0.00014220","GP_ID":"210690163","SEMIMAJOR_AXIS":"6925.417","MEAN_MOTION_DOT":"0.00001081","LAUNCH_DATE":"2021-05-26"},{"REF_FRAME":"TEME","EPHEMERIS_TYPE":"0","TIME_SYSTEM":"UTC","ARG_OF_PERICENTER":"70.7366","PERIAPSIS":"546.215","NORAD_CAT_ID":"48693","TLE_LINE2":"2 48693  53.0543 139.2042 0001488  70.7366 289.3784 15.06389639 68941","EPOCH":"2022-08-21T18:37:39.061056","BSTAR":"0.00005339900000","OBJECT_TYPE":"PAYLOAD","SITE":"AFETR","MEAN_MOTION_DDOT":"0.0000000000000","RA_OF_ASC_NODE":"139.2042","MEAN_MOTION":"15.06389639","COUNTRY_CODE":"US","RCS_SIZE":"LARGE","DECAY_DATE":null,"TLE_LINE1":"1 48693U 21044BH  22233.77614654  .00000514  00000-0  53399-4 0  9996","MEAN_ANOMALY":"289.3784","APOAPSIS":"548.276","PERIOD":"95.593","OBJECT_ID":"2021-044BH","FILE":"3542671","OBJECT_NAME":"STARLINK-2618","CLASSIFICATION_TYPE":"U","MEAN_MOTION_DOT":"0.00000514","LAUNCH_DATE":"2021-05-26","ECCENTRICITY":"0.00014880","SEMIMAJOR_AXIS":"6925.380","GP_ID":"210690413","INCLINATION":"53.0543","REV_AT_EPOCH":"6894","MEAN_ELEMENT_THEORY":"SGP4","CENTER_NAME":"EARTH","ELEMENT_SET_NO":"999"},{"REV_AT_EPOCH":"6886","MEAN_ELEMENT_THEORY":"SGP4","CENTER_NAME":"EARTH","ELEMENT_SET_NO":"999","INCLINATION":"53.0557","ECCENTRICITY":"0.00019380","SEMIMAJOR_AXIS":"6925.385","GP_ID":"210691661","MEAN_MOTION_DOT":"0.00001616","LAUNCH_DATE":"2021-05-26","FILE":"3542671","OBJECT_ID":"2021-044BJ","CLASSIFICATION_TYPE":"U","OBJECT_NAME":"STARLINK-2748","PERIOD":"95.593","MEAN_ANOMALY":"300.4255","TLE_LINE1":"1 48694U 21044BJ  22233.74433357  .00001616  00000-0  12744-3 0  9995","APOAPSIS":"548.592","RCS_SIZE":"LARGE","DECAY_DATE":null,"MEAN_MOTION":"15.06388060","COUNTRY_CODE":"US","MEAN_MOTION_DDOT":"0.0000000000000","SITE":"AFETR","RA_OF_ASC_NODE":"144.3452","EPOCH":"2022-08-21T17:51:50.420448","OBJECT_TYPE":"PAYLOAD","BSTAR":"0.00012744000000","NORAD_CAT_ID":"48694","TLE_LINE2":"2 48694  53.0557 144.3452 0001938  59.6926 300.4255 15.06388060 68863","ARG_OF_PERICENTER":"59.6926","PERIAPSIS":"545.908","TIME_SYSTEM":"UTC","EPHEMERIS_TYPE":"0","REF_FRAME":"TEME"}];
